NORAD_CAT_ID,OBJECT_NAME,OBJECT_TYPE,EPOCH,MEAN_MOTION,ECCENTRICITY,INCLINATION,RA_OF_ASC_NODE,ARG_OF_PERICENTER,MEAN_ANOMALY,BSTAR,MEAN_MOTION_DOT,MEAN_MOTION_DDOT,TLE_LINE0,TLE_LINE1,TLE_LINE2,SEMIMAJOR_AXIS,PERIOD,APOGEE,PERIGEE,DECAYED
56486.0,STARLINK-6201,PAYLOAD,2024-07-18 17:26:49,14.98296093,0.0004087,69.9988,194.5223,257.259,102.8112,-0.00029673,-3.629e-05,0.0,0 STARLINK-6201,1 56486U 23064AQ  24200.72695998 -.00003629  00000-0 -29673-3 0  9999,2 56486  69.9988 194.5223 0004087 257.2590 102.8112 14.98296093 66384,6950.298,96.109,575.003,569.322,0.0
56486.0,STARLINK-6201,PAYLOAD,2024-07-19 04:39:43,14.98328489,0.0003574,69.9988,193.344,258.3672,101.7086,8.2048e-05,8.86e-06,0.0,0 STARLINK-6201,1 56486U 23064AQ  24201.19425616  .00000886  00000-0  82048-4 0  9995,2 56486  69.9988 193.3440 0003574 258.3672 101.7086 14.98328489 66456,6950.198,96.107,574.547,569.579,0.0
56486.0,STARLINK-6201,PAYLOAD,2024-07-19 09:28:07,14.98331445,0.0003552,69.9989,192.8396,259.5206,100.5553,0.00011142,1.237e-05,0.0,0 STARLINK-6201,1 56486U 23064AQ  24201.39453409  .00001237  00000-0  11142-3 0  9995,2 56486  69.9989 192.8396 0003552 259.5206 100.5553 14.98331445 66129,6950.188,96.107,574.522,569.585,0.0
56486.0,STARLINK-6201,PAYLOAD,2024-07-20 06:17:51,14.98338234,0.0003546,69.999,190.6518,257.3204,102.7559,0.00018313,2.093e-05,0.0,0 STARLINK-6201,1 56486U 23064AQ  24202.26240647  .00002093  00000-0  18313-3 0  9998,2 56486  69.9990 190.6518 0003546 257.3204 102.7559 14.98338234 66617,6950.167,96.106,574.497,569.568,0.0
56486.0,STARLINK-6201,PAYLOAD,2024-07-20 09:30:07,14.98340452,0.0003488,69.9991,190.3149,256.4822,103.5949,0.00020615,2.368e-05,0.0,0 STARLINK-6201,1 56486U 23064AQ  24202.39592406  .00002368  00000-0  20615-3 0  9998,2 56486  69.9991 190.3149 0003488 256.4822 103.5949 14.98340452 66275,6950.161,96.106,574.45,569.601,0.0
56486.0,STARLINK-6201,PAYLOAD,2024-07-20 15:54:40,14.98320585,0.0003354,69.9992,189.6416,252.7034,107.3758,0.00046234,5.427e-05,0.0,0 STARLINK-6201,1 56486U 23064AQ  24202.66297136  .00005427  00000-0  46234-3 0  9994,2 56486  69.9992 189.6416 0003354 252.7034 107.3758 14.98320585 66679,6950.222,96.108,574.418,569.756,0.0
56486.0,STARLINK-6201,PAYLOAD,2024-07-21 04:43:44,14.98341446,0.0003598,69.9993,188.2951,252.5486,107.528,6.5653e-05,6.91e-06,0.0,0 STARLINK-6201,1 56486U 23064AQ  24203.19704692  .00000691  00000-0  65653-4 0  9998,2 56486  69.9993 188.2951 0003598 252.5486 107.5280 14.98341446 66758,6950.157,96.106,574.523,569.522,0.0
56486.0,STARLINK-6201,PAYLOAD,2024-07-21 09:32:08,14.98344019,0.0003557,69.9994,187.7905,251.5647,108.5126,9.5e-05,1.041e-05,0.0,0 STARLINK-6201,1 56486U 23064AQ  24203.39732286  .00001041  00000-0  95000-4 0  9999,2 56486  69.9994 187.7905 0003557 251.5647 108.5126 14.98344019 66428,6950.15,96.106,574.487,569.542,0.0
56486.0,STARLINK-6201,PAYLOAD,2024-07-22 04:45:45,14.98338403,0.0003416,69.9997,185.7708,250.5384,109.5406,-7.1843e-05,-9.5e-06,0.0,0 STARLINK-6201,1 56486U 23064AQ  24204.19844499 -.00000950  00000-0 -71843-4 0  9997,2 56486  69.9997 185.7708 0003416 250.5384 109.5406 14.98338403 66906,6950.167,96.106,574.406,569.658,0.0
56486.0,STARLINK-6201,PAYLOAD,2024-07-22 07:58:01,14.98339006,0.0003405,69.9998,185.4343,250.4731,109.606,-6.3933e-05,-8.56e-06,0.0,0 STARLINK-6201,1 56486U 23064AQ  24204.33196351 -.00000856  00000-0 -63933-4 0  9996,2 56486  69.9998 185.4343 0003405 250.4731 109.6060 14.98339006 66561,6950.165,96.106,574.397,569.664,0.0
56486.0,STARLINK-6201,PAYLOAD,2024-07-22 22:23:14,14.98337406,0.0003374,69.9999,183.9195,248.1211,111.9589,-4.5697e-05,-6.38e-06,0.0,0 STARLINK-6201,1 56486U 23064AQ  24204.93280102 -.00000638  00000-0 -45697-4 0  9995,2 56486  69.9999 183.9195 0003374 248.1211 111.9589 14.98337406 66656,6950.17,96.107,574.38,569.69,0.0
56486.0,STARLINK-6201,PAYLOAD,2024-07-23 04:47:46,14.98335889,0.0003348,70.0001,183.2468,245.0362,115.045,-2.6086e-05,-4.04e-06,0.0,0 STARLINK-6201,1 56486U 23064AQ  24205.19984021 -.00000404  00000-0 -26086-4 0  9997,2 56486  70.0001 183.2468 0003348 245.0362 115.0450 14.98335889 67053,6950.175,96.107,574.367,569.713,0.0
56486.0,STARLINK-6201,PAYLOAD,2024-07-23 08:00:02,14.98335656,0.0003338,70.0001,182.9102,245.7804,114.3007,-2.8145e-05,-4.29e-06,0.0,0 STARLINK-6201,1 56486U 23064AQ  24205.33335995 -.00000429  00000-0 -28145-4 0  9998,2 56486  70.0001 182.9102 0003338 245.7804 114.3007 14.98335656 66715,6950.175,96.107,574.36,569.72,0.0
56486.0,STARLINK-6201,PAYLOAD,2024-07-23 22:25:15,14.98325308,0.000325,69.9997,181.3939,256.6622,103.4174,-2.1786e-05,-3.53e-06,0.0,0 STARLINK-6201,1 56486U 23064AQ  24205.93420613 -.00000353  00000-0 -21786-4 0  9996,2 56486  69.9997 181.3939 0003250 256.6622 103.4174 14.98325308 66806,6950.207,96.107,574.331,569.814,0.0
56486.0,STARLINK-6201,PAYLOAD,2024-07-24 04:49:47,14.98324188,0.00033,69.9996,180.7206,256.5787,103.5005,-3.8623e-05,-5.54e-06,0.0,0 STARLINK-6201,1 56486U 23064AQ  24206.20124786 -.00000554  00000-0 -38623-4 0  9990,2 56486  69.9996 180.7206 0003300 256.5787 103.5005 14.98324188 67206,6950.211,96.107,574.369,569.782,0.0
56486.0,STARLINK-6201,PAYLOAD,2024-07-24 08:02:03,14.98325641,0.0003279,69.9996,180.3841,256.618,103.4614,-2.0558e-05,-3.38e-06,0.0,0 STARLINK-6201,1 56486U 23064AQ  24206.33476682 -.00000338  00000-0 -20558-4 0  9997,2 56486  69.9996 180.3841 0003279 256.6180 103.4614 14.98325641 66861,6950.206,96.107,574.35,569.792,0.0
56486.0,STARLINK-6201,PAYLOAD,2024-07-24 22:27:15,14.98334037,0.0003341,69.9994,178.869,256.4666,103.6121,4.5226e-05,4.47e-06,0.0,0 STARLINK-6201,1 56486U 23064AQ  24206.93559983  .00000447  00000-0  45226-4 0  9997,2 56486  69.9994 178.8690 0003341 256.4666 103.6121 14.98334037 66954,6950.18,96.107,574.367,569.723,0.0
56486.0,STARLINK-6201,PAYLOAD,2024-07-25 04:51:47,14.98335054,0.0003335,69.9994,178.1958,256.5127,103.5661,5.6192e-05,5.78e-06,0.0,0 STARLINK-6201,1 56486U 23064AQ  24207.20263838  .00000578  00000-0  56192-4 0  9998,2 56486  69.9994 178.1958 0003335 256.5127 103.5661 14.98335054 67353,6950.177,96.107,574.36,569.724,0.0
56486.0,STARLINK-6201,PAYLOAD,2024-07-25 06:27:55,14.98337093,0.0003316,69.9995,178.0276,256.6047,103.4742,7.8877e-05,8.48e-06,0.0,0 STARLINK-6201,1 56486U 23064AQ  24207.26939627  .00000848  00000-0  78877-4 0  9994,2 56486  69.9995 178.0276 0003316 256.6047 103.4742 14.98337093 67003,6950.171,96.107,574.341,569.731,0.0
56486.0,STARLINK-6201,PAYLOAD,2024-07-25 22:29:16,14.98326666,0.0003266,69.9997,176.3446,256.2426,103.8369,6.9894e-05,7.41e-06,0.0,0 STARLINK-6201,1 56486U 23064AQ  24207.93700165  .00000741  00000-0  69894-4 0  9992,2 56486  69.9997 176.3446 0003266 256.2426 103.8369 14.98326666 67100,6950.203,96.107,574.338,569.798,0.0
56486.0,STARLINK-6201,PAYLOAD,2024-07-26 04:53:49,14.9832856,0.000325,69.9997,175.6728,252.1808,107.8997,8.0373e-05,8.66e-06,0.0,0 STARLINK-6201,1 56486U 23064AQ  24208.20404048  .00000866  00000-0  80373-4 0  9997,2 56486  69.9997 175.6728 0003250 252.1808 107.8997 14.98328560 67507,6950.197,96.107,574.321,569.804,0.0
56486.0,STARLINK-6201,PAYLOAD,2024-07-26 08:06:05,14.9832987,0.0003241,69.9998,175.336,252.2729,107.8076,9.1316e-05,9.97e-06,0.0,0 STARLINK-6201,1 56486U 23064AQ  24208.33755940  .00000997  00000-0  91316-4 0  9995,2 56486  69.9998 175.3360 0003241 252.2729 107.8076 14.98329870 67165,6950.193,96.107,574.311,569.806,0.0
56486.0,STARLINK-6201,PAYLOAD,2024-07-26 14:30:37,14.98332107,0.0003108,70.0,174.6624,255.4037,104.6777,4.1016e-05,3.96e-06,0.0,0 STARLINK-6201,1 56486U 23064AQ  24208.60459956  .00000396  00000-0  41016-4 0  9998,2 56486  70.0000 174.6624 0003108 255.4037 104.6777 14.98332107 67201,6950.186,96.107,574.211,569.891,0.0
56486.0,STARLINK-6201,PAYLOAD,2024-07-27 04:55:50,14.98331673,0.0003057,70.0003,173.1486,250.6162,109.4666,-3.4301e-05,-5.02e-06,0.0,0 STARLINK-6201,1 56486U 23064AQ  24209.20544109 -.00000502  00000-0 -34301-4 0  9990,2 56486  70.0003 173.1486 0003057 250.6162 109.4666 14.98331673 67659,6950.188,96.107,574.177,569.928,0.0
56486.0,STARLINK-6201,PAYLOAD,2024-07-27 06:31:58,14.98328945,0.0003057,70.0004,172.9805,249.5525,110.5306,-6.1151e-05,-8.23e-06,0.0,0 STARLINK-6201,1 56486U 23064AQ  24209.27220396 -.00000823  00000-0 -61151-4 0  9995,2 56486  70.0004 172.9805 0003057 249.5525 110.5306 14.98328945 67306,6950.196,96.107,574.186,569.936,0.0
56486.0,STARLINK-6201,PAYLOAD,2024-07-28 04:57:52,14.98319133,0.0002977,70.0,170.6227,257.2239,102.8588,-6.4466e-05,-8.62e-06,0.0,0 STARLINK-6201,1 56486U 23064AQ  24210.20685657 -.00000862  00000-0 -64466-4 0  9990,2 56486  70.0000 170.6227 0002977 257.2239 102.8588 14.98319133 67803,6950.226,96.108,574.161,570.022,0.0
56486.0,STARLINK-6201,PAYLOAD,2024-07-28 14:34:40,14.98329587,0.0003021,69.9999,169.6127,257.7269,102.3551,2.522e-05,2.08e-06,0.0,0 STARLINK-6201,1 56486U 23064AQ  24210.60740932  .00000208  00000-0  25220-4 0  9999,2 56486  69.9999 169.6127 0003021 257.7269 102.3551 14.98329587 67868,6950.194,96.107,574.159,569.96,0.0
56486.0,STARLINK-6201,PAYLOAD,2024-07-28 22:35:18,14.98351024,0.0002885,70.0005,168.7705,256.4522,103.6315,0.00029594,3.442e-05,0.0,0 STARLINK-6201,1 56486U 23064AQ  24210.94118721  .00003442  00000-0  29594-3 0  9991,2 56486  70.0005 168.7705 0002885 256.4522 103.6315 14.98351024 67555,6950.128,96.106,573.998,569.988,0.0
56486.0,STARLINK-6201,PAYLOAD,2024-07-29 04:59:50,14.98348309,0.0002854,70.0002,168.0979,258.3388,101.7451,0.00045886,5.389e-05,0.0,0 STARLINK-6201,1 56486U 23064AQ  24211.20822051  .00005389  00000-0  45886-3 0  9993,2 56486  70.0002 168.0979 0002854 258.3388 101.7451 14.98348309 67951,6950.136,96.106,573.985,570.018,0.0
56486.0,STARLINK-6201,PAYLOAD,2024-07-29 06:35:57,14.9835256,0.0003086,69.9996,167.9295,260.6108,99.4702,0.00051045,6.006e-05,0.0,0 STARLINK-6201,1 56486U 23064AQ  24211.27497526  .00006006  00000-0  51045-3 0  9996,2 56486  69.9996 167.9295 0003086 260.6108  99.4702 14.98352560 67601,6950.123,96.106,574.133,569.843,0.0
